STARLINK-31936          
1 59875U 24098T   26068.53805881  .00000654  00000+0  33307-4 0  9991
2 59875  43.0038 246.5196 0001152 272.6607  87.4113 15.27575371102185
FLOCK 4G-15             
1 62678U 25009BX  26068.71779869  .00012647  00000+0  47575-3 0  9991
2 62678  97.4054 151.1927 0003699 316.8208  43.2740 15.27266411121358
